ARABSAT-1DR (TELSTAR 3A)
1 14234U 83077A   24128.67687395  .00000046  00000+0  00000+0 0  9995
2 14234  14.3326 347.6488 0027737 147.4056 212.7057  0.99521055 38672
